STARLINK-37963          
1 69709U 26147F   26199.58366446  .00213039  00000+0  10859-2 0  9992
2 69709  97.2828 236.1757 0001149  68.5757 291.5634 15.80817365  4393
STARLINK-37969          
1 69710U 26147G   26199.58291631  .00180922  00000+0  92250-3 0  9997
2 69710  97.2835 236.1775 0001194  53.9872 306.1507 15.80894823  4395
STARLINK-37956          
1 69711U 26147H   26199.58216517  .00292038  00000+0  14661-2 0  9999
2 69711  97.2825 236.1788 0001242  46.8247 313.3125 15.80946922  4394
STARLINK-38043          
1 69712U 26147J   26199.58141469  .00312066  00000+0  15625-2 0  9998
2 69712  97.2827 236.1790 0001408  49.7425 310.3967 15.80953703  4390
STARLINK-38020          
1 69713U 26147K   26199.58066336  .00290695  00000+0  14598-2 0  9999
2 69713  97.2816 236.1801 0001361  58.5511 301.5891 15.80944739  4391
STARLINK-38059          
1 69714U 26147L   26199.57991077  .00234969  00000+0  11890-2 0  9992
2 69714  97.2820 236.1815 0001249  58.8081 301.3310 15.80920255  4393
STARLINK-38061          
1 69715U 26147M   26199.57916007  .00293195  00000+0  14721-2 0  9995
2 69715  97.2815 236.1832 0001209  70.3471 289.7928 15.80941554  4394
STARLINK-38060          
1 69716U 26147N   26199.57840821  .00296955  00000+0  14898-2 0  9998
2 69716  97.2824 236.1839 0001322  58.1244 302.0153 15.80948892  4391
STARLINK-38040          
1 69717U 26147P   26199.57765680  .00232812  00000+0  11785-2 0  9992
2 69717  97.2816 236.1848 0001342  66.9493 293.1917 15.80917767  4393
STARLINK-37989          
1 69718U 26147Q   26199.57690476  .00283732  00000+0  14263-2 0  9994
2 69718  97.2816 236.1849 0001025  84.6246 275.5140 15.80939579  4393
STARLINK-38039          
1 69719U 26147R   26199.57615257  .00266007  00000+0  13403-2 0  9990
2 69719  97.2821 236.1857 0000960  75.1951 284.9423 15.80933810  4394
STARLINK-38003          
1 69720U 26147S   26199.57540257  .00264463  00000+0  13332-2 0  9994
2 69720  97.2813 236.1863 0001268  80.6487 279.4924 15.80927741  4392
STARLINK-38014          
1 69721U 26147T   26199.57465067  .00278517  00000+0  14010-2 0  9999
2 69721  97.2822 236.1887 0001129  69.7395 290.3995 15.80938922  4394
STARLINK-37915          
1 69722U 26147U   26199.57389988  .00273168  00000+0  13752-2 0  9996
2 69722  97.2822 236.1893 0001414  68.0100 292.1318 15.80935398  4398
STARLINK-38007          
1 69723U 26147V   26199.57628746  .00193516  00000+0  98554-3 0  9997
2 69723  97.2822 236.1850 0002113 354.4195   5.7049 15.80887069  4395
STARLINK-38008          
1 69724U 26147W   26199.57239637  .00227035  00000+0  11502-2 0  9996
2 69724  97.2823 236.1923 0001566  82.3022 277.8424 15.80916255  4394
STARLINK-38021          
1 69725U 26147X   26199.57163828  .00253504  00000+0  12784-2 0  9998
2 69725  97.2826 236.1932 0001267  69.1783 290.9621 15.80947571  4393
STARLINK-38015          
1 69726U 26147Y   26198.05172056  .00270378  00000+0  13765-2 0  9992
2 69726  97.2828 234.5863 0003109 175.2803 184.8496 15.80693791  4157
STARLINK-38010          
1 69727U 26147Z   26199.54222845  .00188434  00000+0  12341-2 0  9990
2 69727  97.2825 236.0784 0000282 223.9095 136.2147 15.75235803  4386
SXM-11                  
1 69728U 26148A   26199.58864397  .00000003  00000+0  00000+0 0  9991
2 69728   0.1025 265.0924 0002011 184.2408 298.4416  1.00270050   358
HAIYANG-2E              
1 69737U 26149A   26198.84297304 -.00000064  00000+0 -19198-4 0  9990
2 69737  99.3454 205.7315 0001585  89.9573 270.1760 13.79314680  2187
STARLINK-38033          
1 69739U 26150A   26199.50283170  .00298832  00000+0  14994-2 0  9991
2 69739  97.2841  38.0553 0001482 123.7803 236.3606 15.80941563  3843
STARLINK-38076          
1 69740U 26150B   26199.53333629  .00109001  00000+0  72123-3 0  9999
2 69740  97.2840  38.0124 0001323 108.5412 251.5997 15.75226504  3846
STARLINK-38074          
1 69741U 26150C   26199.58335648 -.00861429  00000+0 -62231-2 0  9997
2 69741  97.2844  38.1446 0001149  61.3294  41.9523 15.75770017  3848
STARLINK-38041          
1 69742U 26150D   26199.58335648 -.00174988  00000+0 -11926-2 0  9990
2 69742  97.2849  38.1220 0001328  88.8312 320.7296 15.75264607  3846
STARLINK-38087          
1 69743U 26150E   26199.58335648 -.00205472  00000+0 -14045-2 0  9999
2 69743  97.2845  38.1393 0001132  82.9155   8.6391 15.75280505  3840
STARLINK-38078          
1 69744U 26150F   26199.49798913  .00238664  00000+0  12078-2 0  9999
2 69744  97.2847  38.0621 0000877  99.2702 260.8666 15.80910023  3848
STARLINK-38047          
1 69745U 26150G   26199.58335648 -.00187974  00000+0 -12830-2 0  9997
2 69745  97.2847  38.1255 0000630  88.0921 331.4699 15.75268821  3846
STARLINK-38046          
1 69746U 26150H   26199.49526814  .00198949  00000+0  10128-2 0  9995
2 69746  97.2848  38.0661 0001253 105.4414 254.6993 15.80882401  3846
