OBJECT_NAME,OBJECT_ID,EPOCH,MEAN_MOTION,ECCENTRICITY,INCLINATION,RA_OF_ASC_NODE,ARG_OF_PERICENTER,MEAN_ANOMALY,EPHEMERIS_TYPE,CLASSIFICATION_TYPE,NORAD_CAT_ID,ELEMENT_SET_NO,REV_AT_EPOCH,BSTAR,MEAN_MOTION_DOT,MEAN_MOTION_DDOT
STARLINK-37963,2026-147F,2026-07-18T14:00:28.609344,15.80817365,.00011495,97.2828,236.1757,68.5757,291.5634,0,U,69709,999,439,.10859413E-2,.213039E-2,0
STARLINK-37969,2026-147G,2026-07-18T13:59:23.969184,15.80894823,.00011945,97.2835,236.1775,53.9872,306.1507,0,U,69710,999,439,.92250218E-3,.180922E-2,0
STARLINK-37956,2026-147H,2026-07-18T13:58:19.070688,15.80946922,.00012421,97.2825,236.1788,46.8247,313.3125,0,U,69711,999,439,.14661228E-2,.292038E-2,0
STARLINK-38043,2026-147J,2026-07-18T13:57:14.229216,15.80953703,.00014086,97.2827,236.1790,49.7425,310.3967,0,U,69712,999,439,.15625091E-2,.312066E-2,0
STARLINK-38020,2026-147K,2026-07-18T13:56:09.314304,15.80944739,.00013614,97.2816,236.1801,58.5511,301.5891,0,U,69713,999,439,.14597589E-2,.290695E-2,0
STARLINK-38059,2026-147L,2026-07-18T13:55:04.290528,15.80920255,.0001249,97.2820,236.1815,58.8081,301.3310,0,U,69714,999,439,.11890261E-2,.234969E-2,0
STARLINK-38061,2026-147M,2026-07-18T13:53:59.430048,15.80941554,.00012097,97.2815,236.1832,70.3471,289.7928,0,U,69715,999,439,.14720941E-2,.293195E-2,0
STARLINK-38060,2026-147N,2026-07-18T13:52:54.469344,15.80948892,.00013225,97.2824,236.1839,58.1244,302.0153,0,U,69716,999,439,.14898156E-2,.296955E-2,0
STARLINK-38040,2026-147P,2026-07-18T13:51:49.547520,15.80917767,.00013423,97.2816,236.1848,66.9493,293.1917,0,U,69717,999,439,.11785464E-2,.232812E-2,0
STARLINK-37989,2026-147Q,2026-07-18T13:50:44.571264,15.80939579,.00010255,97.2816,236.1849,84.6246,275.5140,0,U,69718,999,439,.14262872E-2,.283732E-2,0
STARLINK-38039,2026-147R,2026-07-18T13:49:39.582048,15.80933810,.00009605,97.2821,236.1857,75.1951,284.9423,0,U,69719,999,439,.13403304E-2,.266007E-2,0
STARLINK-38003,2026-147S,2026-07-18T13:48:34.782048,15.80927741,.00012687,97.2813,236.1863,80.6487,279.4924,0,U,69720,999,439,.13331748E-2,.264463E-2,0
STARLINK-38014,2026-147T,2026-07-18T13:47:29.817888,15.80938922,.00011291,97.2822,236.1887,69.7395,290.3995,0,U,69721,999,439,.14009769E-2,.278517E-2,0
STARLINK-37915,2026-147U,2026-07-18T13:46:24.949632,15.80935398,.00014144,97.2822,236.1893,68.0100,292.1318,0,U,69722,999,439,.13751663E-2,.273168E-2,0
STARLINK-38007,2026-147V,2026-07-18T13:49:51.236544,15.80887069,.00021132,97.2822,236.1850,354.4195,5.7049,0,U,69723,999,439,.98554087E-3,.193516E-2,0
STARLINK-38008,2026-147W,2026-07-18T13:44:15.046368,15.80916255,.00015666,97.2823,236.1923,82.3022,277.8424,0,U,69724,999,439,.11501609E-2,.227035E-2,0
STARLINK-38021,2026-147X,2026-07-18T13:43:09.547392,15.80947571,.00012674,97.2826,236.1932,69.1783,290.9621,0,U,69725,999,439,.12784227E-2,.253504E-2,0
STARLINK-38015,2026-147Y,2026-07-17T01:14:28.656384,15.80693791,.00031092,97.2828,234.5863,175.2803,184.8496,0,U,69726,999,415,.13764939E-2,.270378E-2,0
STARLINK-38010,2026-147Z,2026-07-18T13:00:48.538080,15.75235803,.00002821,97.2825,236.0784,223.9095,136.2147,0,U,69727,999,438,.12340741E-2,.188434E-2,0
SXM-11,2026-148A,2026-07-18T14:07:38.839008,1.00270050,.00020117,0.1025,265.0924,184.2408,298.4416,0,U,69728,999,35,0,.3E-7,0
HAIYANG-2E,2026-149A,2026-07-17T20:13:52.870656,13.79314680,.00015852,99.3454,205.7315,89.9573,270.1760,0,U,69737,999,218,-.1919833E-4,-.64E-6,0
STARLINK-38033,2026-150A,2026-07-18T12:04:04.658880,15.80941563,.00014821,97.2841,38.0553,123.7803,236.3606,0,U,69739,999,384,.14994082E-2,.298832E-2,0
STARLINK-38076,2026-150B,2026-07-18T12:48:00.255456,15.75226504,.0001323,97.2840,38.0124,108.5412,251.5997,0,U,69740,999,384,.72123351E-3,.109001E-2,0
STARLINK-38074,2026-150C,2026-07-18T14:00:01.999872,15.75770017,.00011496,97.2844,38.1446,61.3294,41.9523,0,U,69741,999,384,-.62231439E-2,-.861429E-2,0
STARLINK-38041,2026-150D,2026-07-18T14:00:01.999872,15.75264607,.00013288,97.2849,38.1220,88.8312,320.7296,0,U,69742,999,384,-.11926021E-2,-.174988E-2,0
STARLINK-38087,2026-150E,2026-07-18T14:00:01.999872,15.75280505,.00011322,97.2845,38.1393,82.9155,8.6391,0,U,69743,999,384,-.14045477E-2,-.205472E-2,0
STARLINK-38078,2026-150F,2026-07-18T11:57:06.260832,15.80910023,.00008777,97.2847,38.0621,99.2702,260.8666,0,U,69744,999,384,.12077551E-2,.238664E-2,0
STARLINK-38047,2026-150G,2026-07-18T14:00:01.999872,15.75268821,.00006307,97.2847,38.1255,88.0921,331.4699,0,U,69745,999,384,-.12829884E-2,-.187974E-2,0
STARLINK-38046,2026-150H,2026-07-18T11:53:11.167296,15.80882401,.00012533,97.2848,38.0661,105.4414,254.6993,0,U,69746,999,384,.10128103E-2,.198949E-2,0
